{
  "57653": {
    "noradId": "57653",
    "tle": [
      "1 57653C 23122X   25362.82965278 -.00025778  00000+0 -19022-2 0  3621",
      "2 57653  43.0018 106.6143 0001695 262.9042 180.8135 15.02557386    10"
    ]
  },
  "57663": {
    "noradId": "57663",
    "tle": [
      "1 57663C 23124A   25362.83173611 -.00003231  00000+0 -10891-3 0  3623",
      "2 57663  53.1590 176.1582 0001272  87.4569 355.1440 15.30194156    11"
    ]
  },
  "57665": {
    "noradId": "57665",
    "tle": [
      "1 57665C 23124C   25362.82618056  .00007545  00000+0  25434-3 0  3620",
      "2 57665  53.1587 176.2238 0001249  88.5285 311.8130 15.30177424    13"
    ]
  },
  "57666": {
    "noradId": "57666",
    "tle": [
      "1 57666C 23124D   25362.82756944  .00001391  00000+0  46895-4 0  3628",
      "2 57666  53.1595 237.8859 0001285  88.6731 196.7694 15.30190752    17"
    ]
  },
  "57667": {
    "noradId": "57667",
    "tle": [
      "1 57667C 23124E   25362.82895833  .00001817  00000+0  61240-4 0  3624",
      "2 57667  53.1568 176.2144 0001199  87.9453 223.1887 15.30183229    18"
    ]
  },
  "57668": {
    "noradId": "57668",
    "tle": [
      "1 57668C 23124F   25362.83243056 -.00002759  00000+0 -92987-4 0  3620",
      "2 57668  53.1574 176.1678 0001237  85.3451 273.9689 15.30194690    17"
    ]
  },
  "57669": {
    "noradId": "57669",
    "tle": [
      "1 57669C 23124G   25362.82895833 -.00005287  00000+0 -17818-3 0  3624",
      "2 57669  53.1563 176.1945 0001266  86.7396 177.9423 15.30198334    16"
    ]
  },
  "57670": {
    "noradId": "57670",
    "tle": [
      "1 57670C 23124H   25362.82756944  .00011960  00000+0  40328-3 0  3620",
      "2 57670  53.1568 176.2166 0001238  82.8000 226.5323 15.30164356    14"
    ]
  },
  "57671": {
    "noradId": "57671",
    "tle": [
      "1 57671C 23124J   25362.83034722  .00000620  00000+0  20897-4 0  3626",
      "2 57671  53.1588 176.1521 0001216  83.0843 334.4496 15.30189956    18"
    ]
  },
  "57672": {
    "noradId": "57672",
    "tle": [
      "1 57672C 23124K   25362.82826389  .00000163  00000+0  55054-5 0  3620",
      "2 57672  53.1581 176.0960 0001239  87.7163  45.4960 15.30186663    16"
    ]
  },
  "57673": {
    "noradId": "57673",
    "tle": [
      "1 57673C 23124L   25362.82965278 -.00004948  00000+0 -16679-3 0  3627",
      "2 57673  53.1584 176.2183 0001275  87.8436 296.7883 15.30192119    11"
    ]
  },
  "57676": {
    "noradId": "57676",
    "tle": [
      "1 57676C 23124P   25362.82895833 -.00036402  00000+0 -12274-2 0  3625",
      "2 57676  53.1583 176.1286 0001424  88.2598  31.3950 15.30212484    12"
    ]
  },
  "57677": {
    "noradId": "57677",
    "tle": [
      "1 57677C 23124Q   25362.83173611  .00000747  00000+0  25185-4 0  3628",
      "2 57677  53.1575 175.6090 0001263  86.1826 287.2181 15.30189655    14"
    ]
  },
  "57678": {
    "noradId": "57678",
    "tle": [
      "1 57678C 23124R   25362.83243056  .00000970  00000+0  32679-4 0  3624",
      "2 57678  53.1579 163.1759 0001306  84.1725 133.2101 15.30189937    12"
    ]
  },
  "57679": {
    "noradId": "57679",
    "tle": [
      "1 57679C 23124S   25362.83243056  .00004899  00000+0  16516-3 0  3620",
      "2 57679  53.1564 175.7232 0001202  90.4207 228.6586 15.30179349    14"
    ]
  },
  "57680": {
    "noradId": "57680",
    "tle": [
      "1 57680C 23124T   25362.83243056  .00000403  00000+0  13575-4 0  3622",
      "2 57680  53.1587 176.1161 0001259  81.6543  22.2270 15.30189744    12"
    ]
  },
  "57681": {
    "noradId": "57681",
    "tle": [
      "1 57681C 23124U   25362.82618056 -.00026621  00000+0 -89638-3 0  3622",
      "2 57681  53.1564 176.1889 0000829  67.1963 199.5076 15.30248684    13"
    ]
  },
  "57682": {
    "noradId": "57682",
    "tle": [
      "1 57682C 23124V   25362.83034722 -.00005634  00000+0 -18989-3 0  3628",
      "2 57682  53.1585 176.1562 0001311  88.6018  21.1925 15.30194606    18"
    ]
  },
  "57683": {
    "noradId": "57683",
    "tle": [
      "1 57683C 23124W   25362.82965278  .00001416  00000+0  47729-4 0  3624",
      "2 57683  53.1587 176.2101 0001280  86.4938 309.7490 15.30187914    19"
    ]
  },
  "57698": {
    "noradId": "57698",
    "tle": [
      "1 57698C 23129A   25362.83173611 -.00015268  00000+0 -11267-2 0  3626",
      "2 57698  43.0017 145.0711 0001423 263.3943 268.1814 15.02546367    11"
    ]
  },
  "57699": {
    "noradId": "57699",
    "tle": [
      "1 57699C 23129B   25362.83034722  .00008257  00000+0  60941-3 0  3628",
      "2 57699  43.0011 132.9387 0001494 272.6063 339.4441 15.02517365    18"
    ]
  },
  "57700": {
    "noradId": "57700",
    "tle": [
      "1 57700C 23129C   25362.82895833 -.00006992  00000+0 -51594-3 0  3628",
      "2 57700  43.0014 145.0437 0001444 262.9589 271.6142 15.02539107    18"
    ]
  },
  "57701": {
    "noradId": "57701",
    "tle": [
      "1 57701C 23129D   25362.82826389  .00051343  00000+0  37918-2 0  3620",
      "2 57701  43.0017 145.7370 0001207 284.8844 317.3883 15.02450913    16"
    ]
  },
  "57702": {
    "noradId": "57702",
    "tle": [
      "1 57702C 23129E   25362.82826389  .00008724  00000+0  64365-3 0  3623",
      "2 57702  43.0017 145.6513 0001421 269.2524   9.0996 15.02531808    18"
    ]
  },
  "57703": {
    "noradId": "57703",
    "tle": [
      "1 57703C 23129F   25362.82687500 -.00017771  00000+0 -13114-2 0  3623",
      "2 57703  43.0008 145.7028 0001434 263.5571 349.2476 15.02549712    19"
    ]
  },
  "57704": {
    "noradId": "57704",
    "tle": [
      "1 57704C 23129G   25362.82756944 -.00018623  00000+0 -13743-2 0  3628",
      "2 57704  43.0018 145.5680 0001418 263.4613  47.2035 15.02550548    16"
    ]
  },
  "57707": {
    "noradId": "57707",
    "tle": [
      "1 57707C 23129K   25362.83173611  .00039279  00000+0  18347-2 0  3629",
      "2 57707  42.9959 122.1335 0018246 327.3832 228.3086 15.18834841    15"
    ]
  },
  "57708": {
    "noradId": "57708",
    "tle": [
      "1 57708C 23129L   25362.83243056 -.00002561  00000+0 -18901-3 0  3624",
      "2 57708  43.0012 145.4135 0001491 267.6618 123.4170 15.02534517    15"
    ]
  },
  "57709": {
    "noradId": "57709",
    "tle": [
      "1 57709C 23129M   25362.82895833 -.00011656  00000+0 -86020-3 0  3622",
      "2 57709  43.0007 145.5190 0001466 264.0228  72.2021 15.02542315    13"
    ]
  },
  "57710": {
    "noradId": "57710",
    "tle": [
      "1 57710C 23129N   25362.83104167  .00009799  00000+0  72273-3 0  3626",
      "2 57710  43.0014 145.4617 0001331 266.8478  98.5732 15.02541206    12"
    ]
  },
  "57711": {
    "noradId": "57711",
    "tle": [
      "1 57711C 23129P   25362.83034722  .00010154  00000+0  74969-3 0  3627",
      "2 57711  43.0012 145.5827 0001500 277.3759  30.2996 15.02503000    17"
    ]
  },
  "57712": {
    "noradId": "57712",
    "tle": [
      "1 57712C 23129Q   25362.83312500  .00009223  00000+0  68045-3 0  3624",
      "2 57712  43.0018 145.3212 0001469 268.3053 162.5948 15.02531162    17"
    ]
  },
  "57713": {
    "noradId": "57713",
    "tle": [
      "1 57713C 23129R   25362.83173611  .00007774  00000+0  57364-3 0  3624",
      "2 57713  43.0011 145.2430 0001460 268.2225 191.2299 15.02525487    14"
    ]
  },
  "57714": {
    "noradId": "57714",
    "tle": [
      "1 57714C 23129S   25362.82687500 -.00013294  00000+0 -98086-3 0  3623",
      "2 57714  43.0011 144.9677 0001392 263.3661 295.9585 15.02551234    17"
    ]
  },
  "57715": {
    "noradId": "57715",
    "tle": [
      "1 57715C 23129T   25362.82826389  .00009196  00000+0  67845-3 0  3627",
      "2 57715  43.0011 145.3918 0001467 268.2935 118.2532 15.02531537    15"
    ]
  },
  "57716": {
    "noradId": "57716",
    "tle": [
      "1 57716C 23129U   25362.82756944  .00008424  00000+0  62163-3 0  3628",
      "2 57716  43.0019 145.1363 0001385 263.4032 227.5824 15.02524681    10"
    ]
  },
  "57717": {
    "noradId": "57717",
    "tle": [
      "1 57717C 23129V   25362.82618056 -.00015475  00000+0 -11420-2 0  3625",
      "2 57717  43.0019 145.3160 0001386 264.6702 146.6676 15.02548131    18"
    ]
  },
  "57718": {
    "noradId": "57718",
    "tle": [
      "1 57718C 23129W   25362.82826389 -.00005214  00000+0 -38471-3 0  3622",
      "2 57718  43.0014 145.1761 0001374 265.7613 210.9485 15.02539387    15"
    ]
  },
  "57719": {
    "noradId": "57719",
    "tle": [
      "1 57719C 23129X   25362.83173611  .00006932  00000+0  51157-3 0  3629",
      "2 57719  43.0015 145.1997 0001487 271.8577 205.6480 15.02521763    15"
    ]
  },
  "57732": {
    "noradId": "57732",
    "tle": [
      "1 57732C 23131A   25362.82687500 -.00004589  00000+0 -33861-3 0  3623",
      "2 57732  43.0020 184.3490 0001337 259.8289  15.4230 15.02539183    14"
    ]
  },
  "57733": {
    "noradId": "57733",
    "tle": [
      "1 57733C 23131B   25362.82965278  .00008357  00000+0  61675-3 0  3624",
      "2 57733  43.0013 196.4285 0001356 263.3927 310.9812 15.02518408    19"
    ]
  },
  "57734": {
    "noradId": "57734",
    "tle": [
      "1 57734C 23131C   25362.82756944  .00000718  00000+0  52957-4 0  3620",
      "2 57734  43.0016 196.8826 0000882 242.3618 122.3809 15.02531288    17"
    ]
  },
  "57735": {
    "noradId": "57735",
    "tle": [
      "1 57735C 23131D   25362.83034722 -.00004281  00000+0 -31587-3 0  3621",
      "2 57735  43.0014 196.5972 0001342 259.7355 246.2495 15.02540687    17"
    ]
  },
  "57736": {
    "noradId": "57736",
    "tle": [
      "1 57736C 23131E   25362.82826389 -.00001268  00000+0 -93560-4 0  3621",
      "2 57736  43.0016 196.4770 0001021 263.6601 285.1621 15.02529040    10"
    ]
  },
  "57737": {
    "noradId": "57737",
    "tle": [
      "1 57737C 23131F   25362.82756944  .00002994  00000+0  22093-3 0  3628",
      "2 57737  43.0015 196.7780 0001277 261.0766 163.7484 15.02528008    12"
    ]
  }
}